[
    {
        "Altitude(m)": 624790.7894392145,
        "Argument of Periapsis(deg)": 0.0,
        "Eccentricity": 0.0,
        "Inclination(deg)": 60.0,
        "Latitude(deg)": -59.14709854457391,
        "Longitude(deg)": 31.03477894700209,
        "Mean Anomaly(deg)": -81.81820000000003,
        "RAAN(deg)": 205.0,
        "Satellite Name": "Test1 919",
        "Satellite Number": 919,
        "Semi-Major Axis(m)": 6980739.136638005,
        "Time(s)": 0
    },
    {
        "Altitude(m)": 624737.4438237178,
        "Argument of Periapsis(deg)": 0.00010418945913296404,
        "Eccentricity": 0.0,
        "Inclination(deg)": 60.0,
        "Latitude(deg)": -58.994551665731464,
        "Longitude(deg)": 32.15427935578092,
        "Mean Anomaly(deg)": -81.19809385453819,
        "RAAN(deg)": 204.99957995086024,
        "Satellite Name": "Test1 919",
        "Satellite Number": 919,
        "Semi-Major Axis(m)": 6980739.136638005,
        "Time(s)": 10
    },
    {
        "Altitude(m)": 624680.3146201792,
        "Argument of Periapsis(deg)": 0.0002083789182659281,
        "Eccentricity": 0.0,
        "Inclination(deg)": 60.0,
        "Latitude(deg)": -58.83169321711673,
        "Longitude(deg)": 33.26322727466618,
        "Mean Anomaly(deg)": -80.57798770907635,
        "RAAN(deg)": 204.99915990172053,
        "Satellite Name": "Test1 919",
        "Satellite Number": 919,
        "Semi-Major Axis(m)": 6980739.136638005,
        "Time(s)": 20
    },
    {
        "Altitude(m)": 624619.4242942997,
        "Argument of Periapsis(deg)": 0.00031256837739889213,
        "Eccentricity": 0.0,
        "Inclination(deg)": 60.0,
        "Latitude(deg)": -58.658683836775104,
        "Longitude(deg)": 34.36111463568025,
        "Mean Anomaly(deg)": -79.9578815636145,
        "RAAN(deg)": 204.99873985258077,
        "Satellite Name": "Test1 919",
        "Satellite Number": 919,
        "Semi-Major Axis(m)": 6980739.136638005,
        "Time(s)": 30
    },
    {
        "Altitude(m)": 624554.7967888538,
        "Argument of Periapsis(deg)": 0.0004167578365318562,
        "Eccentricity": 0.0,
        "Inclination(deg)": 60.0,
        "Latitude(deg)": -58.475690547120095,
        "Longitude(deg)": 35.44747347409463,
        "Mean Anomaly(deg)": -79.33777541815267,
        "RAAN(deg)": 204.99831980344103,
        "Satellite Name": "Test1 919",
        "Satellite Number": 919,
        "Semi-Major Axis(m)": 6980739.136638005,
        "Time(s)": 40
    },
    {
        "Altitude(m)": 624486.4575135935,
        "Argument of Periapsis(deg)": 0.0005209472956648203,
        "Eccentricity": 0.0,
        "Inclination(deg)": 60.0,
        "Latitude(deg)": -58.282886052353696,
        "Longitude(deg)": 36.521875165654194,
        "Mean Anomaly(deg)": -78.71766927269083,
        "RAAN(deg)": 204.99789975430127,
        "Satellite Name": "Test1 919",
        "Satellite Number": 919,
        "Semi-Major Axis(m)": 6980739.136638005,
        "Time(s)": 50
    },
    {
        "Altitude(m)": 624414.4333345239,
        "Argument of Periapsis(deg)": 0.0006251367547977843,
        "Eccentricity": 0.0,
        "Inclination(deg)": 60.0,
        "Latitude(deg)": -58.08044804184749,
        "Longitude(deg)": 37.58393089221074,
        "Mean Anomaly(deg)": -78.09756312722898,
        "RAAN(deg)": 204.99747970516157,
        "Satellite Name": "Test1 919",
        "Satellite Number": 919,
        "Semi-Major Axis(m)": 6980739.136638005,
        "Time(s)": 60
    },
    {
        "Altitude(m)": 624338.7525625738,
        "Argument of Periapsis(deg)": 0.0007293262139307483,
        "Eccentricity": 0.0,
        "Inclination(deg)": 60.0,
        "Latitude(deg)": -57.86855850475447,
        "Longitude(deg)": 38.633291842424434,
        "Mean Anomaly(deg)": -77.47745698176715,
        "RAAN(deg)": 204.99705965602178,
        "Satellite Name": "Test1 919",
        "Satellite Number": 919,
        "Semi-Major Axis(m)": 6980739.136638005,
        "Time(s)": 70
    },
    {
        "Altitude(m)": 624259.4449416418,
        "Argument of Periapsis(deg)": 0.0008335156730637124,
        "Eccentricity": 0.0,
        "Inclination(deg)": 60.0,
        "Latitude(deg)": -57.647403060602784,
        "Longitude(deg)": 39.669647656321146,
        "Mean Anomaly(deg)": -76.85735083630541,
        "RAAN(deg)": 204.99663960688207,
        "Satellite Name": "Test1 919",
        "Satellite Number": 919,
        "Semi-Major Axis(m)": 6980739.136638005,
        "Time(s)": 80
    },
    {
        "Altitude(m)": 624176.5416360328,
        "Argument of Periapsis(deg)": 0.0009377051321966765,
        "Eccentricity": 0.0,
        "Inclination(deg)": 60.0,
        "Latitude(deg)": -57.41717031006078,
        "Longitude(deg)": 40.69272616264376,
        "Mean Anomaly(deg)": -76.23724469084357,
        "RAAN(deg)": 204.9962195577423,
        "Satellite Name": "Test1 919",
        "Satellite Number": 919,
        "Semi-Major Axis(m)": 6980739.136638005,
        "Time(s)": 90
    },
    {
        "Altitude(m)": 624090.075217294,
        "Argument of Periapsis(deg)": 0.0010418945913296407,
        "Eccentricity": 0.0,
        "Inclination(deg)": 60.0,
        "Latitude(deg)": -57.178051209506826,
        "Longitude(deg)": 41.70229292029122,
        "Mean Anomaly(deg)": -75.61713854538162,
        "RAAN(deg)": 204.99579950860257,
        "Satellite Name": "Test1 919",
        "Satellite Number": 919,
        "Semi-Major Axis(m)": 6980739.136638005,
        "Time(s)": 100
    },
    {
        "Altitude(m)": 624000.0796504455,
        "Argument of Periapsis(deg)": 0.0011460840504626045,
        "Eccentricity": 0.0,
        "Inclination(deg)": 60.0,
        "Latitude(deg)": -56.93023847246625,
        "Longitude(deg)": 42.69814907558464,
        "Mean Anomaly(deg)": -74.99703239991987,
        "RAAN(deg)": 204.9953794594628,
        "Satellite Name": "Test1 919",
        "Satellite Number": 919,
        "Semi-Major Axis(m)": 6980739.136638005,
        "Time(s)": 110
    },
    {
        "Altitude(m)": 623906.5902796073,
        "Argument of Periapsis(deg)": 0.0012502735095955685,
        "Eccentricity": 0.0,
        "Inclination(deg)": 60.0,
        "Latitude(deg)": -56.673926000412905,
        "Longitude(deg)": 43.68013058568116,
        "Mean Anomaly(deg)": -74.37692625445806,
        "RAAN(deg)": 204.9949594103231,
        "Satellite Name": "Test1 919",
        "Satellite Number": 919,
        "Semi-Major Axis(m)": 6980739.136638005,
        "Time(s)": 120
    },
    {
        "Altitude(m)": 623809.6438130643,
        "Argument of Periapsis(deg)": 0.0013544629687285324,
        "Eccentricity": 0.0,
        "Inclination(deg)": 60.0,
        "Latitude(deg)": -56.409308344899394,
        "Longitude(deg)": 44.64810731938456,
        "Mean Anomaly(deg)": -73.7568201089962,
        "RAAN(deg)": 204.99453936118334,
        "Satellite Name": "Test1 919",
        "Satellite Number": 919,
        "Semi-Major Axis(m)": 6980739.136638005,
        "Time(s)": 130
    },
    {
        "Altitude(m)": 623709.2783077089,
        "Argument of Periapsis(deg)": 0.0014586524278614966,
        "Eccentricity": 0.0,
        "Inclination(deg)": 60.0,
        "Latitude(deg)": -56.13658020246677,
        "Longitude(deg)": 45.60198054579876,
        "Mean Anomaly(deg)": -73.13671396353436,
        "RAAN(deg)": 204.9941193120436,
        "Satellite Name": "Test1 919",
        "Satellite Number": 919,
        "Semi-Major Axis(m)": 6980739.136638005,
        "Time(s)": 140
    },
    {
        "Altitude(m)": 623605.533152922,
        "Argument of Periapsis(deg)": 0.0015628418869944607,
        "Eccentricity": 0.0,
        "Inclination(deg)": 60.0,
        "Latitude(deg)": -55.85593594329782,
        "Longitude(deg)": 46.54168185876732,
        "Mean Anomaly(deg)": -72.51660781807261,
        "RAAN(deg)": 204.99369926290385,
        "Satellite Name": "Test1 919",
        "Satellite Number": 919,
        "Semi-Major Axis(m)": 6980739.136638005,
        "Time(s)": 150
    },
    {
        "Altitude(m)": 623498.4490538919,
        "Argument of Periapsis(deg)": 0.0016670313461274247,
        "Eccentricity": 0.0,
        "Inclination(deg)": 60.0,
        "Latitude(deg)": -55.567569174145596,
        "Longitude(deg)": 47.46717204508678,
        "Mean Anomaly(deg)": -71.89650167261068,
        "RAAN(deg)": 204.99327921376414,
        "Satellite Name": "Test1 919",
        "Satellite Number": 919,
        "Semi-Major Axis(m)": 6980739.136638005,
        "Time(s)": 160
    },
    {
        "Altitude(m)": 623388.0680143405,
        "Argument of Periapsis(deg)": 0.0017712208052603888,
        "Eccentricity": 0.0,
        "Inclination(deg)": 60.0,
        "Latitude(deg)": -55.27167233566839,
        "Longitude(deg)": 48.37843840295721,
        "Mean Anomaly(deg)": -71.27639552714894,
        "RAAN(deg)": 204.99285916462438,
        "Satellite Name": "Test1 919",
        "Satellite Number": 919,
        "Semi-Major Axis(m)": 6980739.136638005,
        "Time(s)": 170
    },
    {
        "Altitude(m)": 623274.4333187038,
        "Argument of Periapsis(deg)": 0.001875410264393353,
        "Eccentricity": 0.0,
        "Inclination(deg)": 60.0,
        "Latitude(deg)": -54.96843633394043,
        "Longitude(deg)": 49.27549355410844,
        "Mean Anomaly(deg)": -70.65628938168712,
        "RAAN(deg)": 204.99243911548464,
        "Satellite Name": "Test1 919",
        "Satellite Number": 919,
        "Semi-Major Axis(m)": 6980739.136638005,
        "Time(s)": 180
    },
    {
        "Altitude(m)": 623157.5895137619,
        "Argument of Periapsis(deg)": 0.0019795997235263173,
        "Eccentricity": 0.0,
        "Inclination(deg)": 60.0,
        "Latitude(deg)": -54.658050205604695,
        "Longitude(deg)": 50.15837425269753,
        "Mean Anomaly(deg)": -70.03618323622526,
        "RAAN(deg)": 204.99201906634488,
        "Satellite Name": "Test1 919",
        "Satellite Number": 919,
        "Semi-Major Axis(m)": 6980739.136638005,
        "Time(s)": 190
    }
]